OBJECT_NAME,OBJECT_ID,EPOCH,MEAN_MOTION,ECCENTRICITY,INCLINATION,RA_OF_ASC_NODE,ARG_OF_PERICENTER,MEAN_ANOMALY,EPHEMERIS_TYPE,CLASSIFICATION_TYPE,NORAD_CAT_ID,ELEMENT_SET_NO,REV_AT_EPOCH,BSTAR,MEAN_MOTION_DOT,MEAN_MOTION_DDOT
STARLINK-2692,2021-040G,2026-06-24T22:57:05.667840,15.31723619,.000124,53.1622,13.7348,86.6337,273.4806,0,U,48434,999,28347,.10038E-3,.2753E-4,0
STARLINK-2633,2021-040H,2026-06-25T04:43:16.409280,15.31702637,.0001346,53.1588,25.1101,74.6843,285.4307,0,U,48435,999,28332,-.12888E-3,-.4362E-4,0
STARLINK-2639,2021-040J,2026-06-24T21:51:32.917824,15.31730910,.0000849,53.1580,39.3154,72.4325,287.6769,0,U,48436,999,28310,.10713E-3,.2964E-4,0
STARLINK-2642,2021-040K,2026-06-24T22:09:54.631008,15.31706216,.0001123,53.1598,52.1575,76.3090,283.8036,0,U,48437,999,28292,.24214E-3,.7157E-4,0
STARLINK-2640,2021-040L,2026-06-24T23:26:01.417920,15.31712386,.0001063,53.1603,39.0741,83.7288,276.3835,0,U,48438,999,28311,.11453E-3,.3192E-4,0
STARLINK-2583,2021-040M,2026-06-24T23:46:10.587648,15.31721646,.0000937,53.1579,39.1896,105.1938,254.9167,0,U,48439,999,28311,.20453E-3,.5991E-4,0
STARLINK-2682,2021-040N,2026-06-25T03:47:44.321568,15.31747758,.000109,53.1608,38.1394,94.4183,265.6943,0,U,48440,999,28314,.58944E-3,.17997E-3,0
STARLINK-2702,2021-040P,2026-06-25T02:20:31.598880,15.31726960,.0001304,53.1594,38.5109,88.2365,271.8786,0,U,48441,999,28313,.51318E-3,.15606E-3,0
STARLINK-2644,2021-040Q,2026-06-23T22:42:48.941856,15.45867810,.00023736,53.1598,40.6115,235.3202,124.7582,0,U,48442,999,28300,.1154739E-2,.56973E-3,0
STARLINK-2663,2021-040R,2026-06-23T21:42:23.727456,15.31708410,.00013559,53.1607,43.9476,81.3538,278.7617,0,U,48443,999,28295,.14457908E-3,.4125E-4,0
STARLINK-2645,2021-040S,2026-06-23T15:33:16.178688,15.31696955,.00012423,53.1579,45.2260,88.2042,271.9102,0,U,48444,999,28291,.11279181E-3,.3136E-4,0
STARLINK-2634,2021-040T,2026-06-24T22:39:03.926016,15.31671053,.0001483,53.1597,39.1333,89.2600,270.8572,0,U,48445,999,28311,.90527E-3,.27806E-3,0
STARLINK-2655,2021-040X,2026-06-24T22:25:36.162912,15.31706942,.0001274,53.1600,39.1886,99.5588,260.5558,0,U,48449,999,28311,.58834E-4,.1461E-4,0
STARLINK-2703,2021-040AA,2026-06-24T22:18:54.155808,15.31706638,.0001066,53.1580,39.2064,109.1888,250.9228,0,U,48452,999,28311,.79075E-4,.209E-4,0
STARLINK-2620,2021-040AB,2026-06-24T23:39:25.286976,15.31719475,.0000983,53.1595,38.9197,105.4463,254.6647,0,U,48453,999,28312,.71494E-4,.1855E-4,0
STARLINK-2654,2021-040AC,2026-06-24T23:32:42.947232,15.31712075,.0001558,53.1603,38.9321,88.6408,271.4772,0,U,48454,999,28312,.77661E-4,.2046E-4,0
STARLINK-2497,2021-040AD,2026-06-25T04:00:00.999072,15.31684400,.0001258,53.1602,38.3638,66.2651,109.1969,0,U,48455,999,590,.42205E-3,.12748E-3,0
STARLINK-2698,2021-040AG,2026-06-24T22:32:55.366080,15.31712298,.0001327,53.1622,39.7978,100.9709,259.1442,0,U,48458,999,28382,.11351E-3,.316E-4,0
STARLINK-2579,2021-040AH,2026-06-25T02:27:13.626720,15.31725271,.0001083,53.1589,38.4379,97.8786,262.2338,0,U,48459,999,28315,.44634E-3,.13521E-3,0
STARLINK-2582,2021-040AJ,2026-06-24T02:53:40.259904,15.82002549,.00016282,53.0478,325.6034,288.7467,71.3378,0,U,48460,999,28457,.82404724E-3,.174185E-2,0
STARLINK-2683,2021-040AL,2026-06-24T22:30:02.717280,15.31729931,.0001235,53.1604,52.1152,98.4010,261.7131,0,U,48462,999,28293,.82638E-3,.2539E-3,0
STARLINK-2686,2021-040AN,2026-06-23T23:34:43.083840,15.31695025,.0001296,53.1621,56.6779,96.9762,263.1387,0,U,48464,999,28278,.13869842E-4,.65E-6,0
STARLINK-2681,2021-040AP,2026-06-25T02:23:47.407200,15.73608765,.0001598,53.1392,36.1836,228.5444,131.5438,0,U,48465,999,28317,.90851E-3,.13119E-2,0
STARLINK-2687,2021-040AQ,2026-06-23T23:20:47.229504,15.31698101,.00014231,53.1605,56.6453,89.9995,270.1170,0,U,48466,999,28279,.47808778E-4,.1118E-4,0
STARLINK-2659,2021-040AR,2026-06-24T23:10:19.263936,15.31692808,.0001112,53.1572,51.9080,99.7197,260.3930,0,U,48467,999,28294,.69205E-5,-.15E-5,0
STARLINK-2685,2021-040AS,2026-06-24T22:03:14.895360,15.31721905,.0001249,53.1594,52.5010,95.3096,264.8048,0,U,48468,999,28293,.65588E-4,.1672E-4,0
STARLINK-2661,2021-040AT,2026-06-24T23:30:27.498816,15.31707079,.0001318,53.1603,52.0287,86.6862,273.4291,0,U,48469,999,28294,.20424E-3,.5979E-4,0
STARLINK-2675,2021-040AU,2026-06-23T23:34:11.835552,15.31700656,.00011389,53.1601,56.5329,93.8368,266.2764,0,U,48470,999,28278,.61523849E-4,.1545E-4,0
STARLINK-2684,2021-040AV,2026-06-24T22:56:53.418048,15.31746243,.0001064,53.1602,52.0067,113.6280,246.4833,0,U,48471,999,28293,.62454E-3,.19093E-3,0
STARLINK-2722,2021-040AW,2026-06-25T00:04:11.356608,15.12696090,.0002555,53.0589,66.7711,78.6522,281.4757,0,U,48472,999,28270,.10961E-2,.19163E-3,0
STARLINK-2658,2021-040AX,2026-06-24T23:17:01.122432,15.31715196,.0001063,53.1568,51.8971,84.1699,275.9423,0,U,48473,999,28293,.27149E-3,.8073E-4,0
STARLINK-2697,2021-040AY,2026-06-24T22:36:52.191072,15.31715381,.0000959,53.1608,52.7774,89.0659,271.0452,0,U,48474,999,28291,.10112E-3,.2775E-4,0
STARLINK-2728,2021-040BC,2026-06-23T22:47:14.098272,15.31703541,.0001916,53.1607,56.7813,93.0397,267.0824,0,U,48478,999,28277,.47599994E-4,.1112E-4,0
STARLINK-2755,2021-040BD,2026-06-23T23:14:07.695168,15.31703588,.00009735,53.1587,56.9470,77.4743,282.6368,0,U,48479,999,28277,.75209027E-3,.23048E-3,0
STARLINK-2706,2021-040BF,2026-06-25T02:26:22.356960,15.31725530,.0001178,53.1599,53.7733,97.5479,262.5656,0,U,48481,999,28292,.40069E-3,.12099E-3,0
STARLINK-2525,2021-040BG,2026-06-24T22:38:13.833024,15.31737974,.0001264,53.1618,54.9270,89.9216,270.1931,0,U,48482,999,28289,.13729E-3,.3902E-4,0
STARLINK-2531,2021-040BH,2026-06-25T02:06:21.167136,15.31726975,.0001108,53.1586,54.4339,93.0691,267.0437,0,U,48483,999,28291,.44274E-3,.1341E-3,0
STARLINK-2500,2021-040BK,2026-06-24T22:18:05.225760,15.31730349,.0001047,53.1612,54.8147,100.5659,259.5461,0,U,48485,999,28289,-.19697E-4,-.977E-5,0
STARLINK-2494,2021-040BM,2026-06-23T23:42:26.764128,15.31699481,.00012633,53.1582,59.5022,126.3666,233.7452,0,U,48487,999,28275,.65574209E-4,.167E-4,0
STARLINK-2063,2021-041A,2026-06-23T18:49:24.910176,15.31698281,.0001328,53.1619,353.2211,92.1837,267.9316,0,U,48553,999,28153,.22692064E-4,.339E-5,0
STARLINK-2139,2021-041B,2026-06-24T22:53:57.580224,15.31732080,.0001038,53.1594,347.6732,73.2851,286.8264,0,U,48554,999,28171,.16435E-3,.4743E-4,0
STARLINK-2145,2021-041C,2026-06-24T05:55:14.956032,15.31737200,.00004475,53.1616,13.2104,119.5060,240.5986,0,U,48555,999,28127,.39657271E-3,.11975E-3,0
STARLINK-2151,2021-041D,2026-06-24T21:25:55.894656,15.31715005,.0001567,53.1578,3.6959,96.3514,263.7665,0,U,48556,999,28147,.81113E-4,.2154E-4,0
STARLINK-2155,2021-041E,2026-06-25T04:29:33.904608,15.31706621,.0000444,53.1603,346.7408,87.6453,272.4599,0,U,48557,999,28174,.81991E-4,.2181E-4,0
STARLINK-2166,2021-041F,2026-06-25T04:22:51.195072,15.31702820,.0001196,53.1604,346.7507,93.1375,266.9763,0,U,48558,999,28088,.17574E-4,.18E-5,0
STARLINK-2187,2021-041K,2026-06-25T04:00:00.999072,15.61550194,.0001337,53.1545,337.4308,87.0382,7.8854,0,U,48562,999,594,.12063E-1,.1171041E-1,0
STARLINK-2188,2021-041L,2026-06-24T21:46:51.043872,15.31712062,.0001063,53.1585,347.9109,80.0201,280.0921,0,U,48563,999,28170,.92427E-4,.2505E-4,0
STARLINK-2190,2021-041M,2026-06-23T18:56:06.700416,15.31702015,.00015388,53.1613,353.1007,103.2574,256.8599,0,U,48564,999,28153,.246183E-6,-.358E-5,0
STARLINK-2214,2021-041P,2026-06-25T00:36:03.983040,15.31723268,.0001099,53.1600,9.5483,94.8084,265.3043,0,U,48566,999,28139,.19173E-3,.5593E-4,0
STARLINK-2217,2021-041R,2026-06-25T04:16:11.513856,15.31713247,.0000707,53.1594,347.0709,83.2970,276.8111,0,U,48568,999,28173,.12967E-3,.3663E-4,0
STARLINK-2219,2021-041S,2026-06-24T21:40:08.208192,15.31713584,.0001535,53.1591,347.9232,89.4393,270.6785,0,U,48569,999,28170,.11947E-3,.3345E-4,0
STARLINK-2220,2021-041T,2026-06-25T04:26:51.220320,16.19433318,.0010399,53.1164,355.4502,326.0231,34.0141,0,U,48570,999,28159,.10781E-2,.2069676E-1,.1181E-4
STARLINK-2221,2021-041U,2026-06-24T22:05:37.984128,15.31732724,.0001072,53.1621,0.6783,89.6782,270.4342,0,U,48571,999,28152,.28188E-3,.8401E-4,0
STARLINK-2222,2021-041V,2026-06-24T22:28:33.593952,15.31717454,.0001095,53.1601,9.9705,96.5644,263.5482,0,U,48572,999,28138,.3989E-3,.1204E-3,0
STARLINK-2224,2021-041W,2026-06-25T04:43:05.395872,15.31701925,.0001594,53.1595,347.2083,91.4725,268.6459,0,U,48573,999,28173,.39661E-4,.866E-5,0
STARLINK-2225,2021-041X,2026-06-24T03:37:28.248960,15.31705573,.00011192,53.1609,325.6830,76.2677,283.8449,0,U,48574,999,28194,.92882342E-4,.2519E-4,0
STARLINK-2227,2021-041Y,2026-06-23T16:08:29.951232,15.31711855,.00036163,53.1590,315.1548,95.3675,264.7739,0,U,48575,999,28206,.15415631E-3,.4422E-4,0
STARLINK-2228,2021-041Z,2026-06-24T03:24:03.855456,15.31699613,.00009048,53.1617,325.8165,86.9805,273.1300,0,U,48576,999,28195,.45996433E-4,.1063E-4,0
STARLINK-2231,2021-041AA,2026-06-24T21:13:19.212096,15.31719706,.0001203,53.1606,348.2060,81.0684,279.0454,0,U,48577,999,28169,.96568E-4,.2634E-4,0
STARLINK-2232,2021-041AB,2026-06-25T04:09:24.402240,15.31702506,.0001162,53.1587,346.6900,85.1989,274.9145,0,U,48578,999,28174,-.1005E-3,-.3482E-4,0
STARLINK-2234,2021-041AD,2026-06-23T20:07:48.348192,15.31703648,.00010351,53.1619,327.1740,84.4332,275.6787,0,U,48580,999,28190,.71542052E-4,.1856E-4,0
STARLINK-2235,2021-041AE,2026-06-23T20:09:19.446624,15.31706025,.00010237,53.1588,330.0113,66.9211,293.1898,0,U,48581,999,28185,.17483998E-3,.5065E-4,0
STARLINK-2236,2021-041AF,2026-06-25T04:00:00.999072,15.40523495,.0000981,53.0526,324.1922,70.9695,42.7438,0,U,48582,999,579,.30975E-2,.129438E-2,0
STARLINK-2237,2021-041AG,2026-06-24T22:48:42.360192,15.31722417,.0001098,53.1595,9.9739,112.9771,247.1346,0,U,48583,999,28138,.40479E-3,.12225E-3,0
STARLINK-2241,2021-041AK,2026-06-24T22:08:25.059264,15.31701514,.0001499,53.1604,10.0417,84.2814,275.8358,0,U,48586,999,28137,.25579E-4,.429E-5,0
